[{"OBJECT_NAME":"KUIPER-00159","OBJECT_ID":"2026-030A","EPOCH":"2026-03-09T15:10:26.374944","MEAN_MOTION":15.35788737,"ECCENTRICITY":0.0005012,"INCLINATION":51.8841,"RA_OF_ASC_NODE":219.4438,"ARG_OF_PERICENTER":44.9181,"MEAN_ANOMALY":315.221,"EPHEMERIS_TYPE":0,"CLASSIFICATION_TYPE":"U","NORAD_CAT_ID":67764,"ELEMENT_SET_NO":999,"REV_AT_EPOCH":508,"BSTAR":0.00076096,"MEAN_MOTION_DOT":0.0002662,"MEAN_MOTION_DDOT":0},{"OBJECT_NAME":"SPACEMOBILE-004 DEB","OBJECT_ID":"2024-163J","EPOCH":"2026-03-09T22:05:47.775840","MEAN_MOTION":15.36798539,"ECCENTRICITY":0.00043505,"INCLINATION":52.9881,"RA_OF_ASC_NODE":19.7177,"ARG_OF_PERICENTER":191.7611,"MEAN_ANOMALY":168.329,"EPHEMERIS_TYPE":0,"CLASSIFICATION_TYPE":"U","NORAD_CAT_ID":62372,"ELEMENT_SET_NO":999,"REV_AT_EPOCH":7967,"BSTAR":0.00061559408,"MEAN_MOTION_DOT":0.00022146,"MEAN_MOTION_DDOT":0}]
